[{"OBJECT_NAME":"ONEWEB-0058","OBJECT_ID":"2020-008AG","EPOCH":"2025-12-24T04:46:59.859552","MEAN_MOTION":13.10371992,"ECCENTRICITY":0.00016536,"INCLINATION":87.8795,"RA_OF_ASC_NODE":71.169,"ARG_OF_PERICENTER":97.973,"MEAN_ANOMALY":262.1585,"EPHEMERIS_TYPE":0,"CLASSIFICATION_TYPE":"U","NORAD_CAT_ID":45161,"ELEMENT_SET_NO":999,"REV_AT_EPOCH":28550,"BSTAR":0.0019628585,"MEAN_MOTION_DOT":6.98e-6,"MEAN_MOTION_DDOT":0},{"OBJECT_NAME":"ONEWEB-0059","OBJECT_ID":"2020-008AH","EPOCH":"2025-12-24T04:42:00.506016","MEAN_MOTION":13.10375022,"ECCENTRICITY":0.00017423,"INCLINATION":87.8798,"RA_OF_ASC_NODE":71.1698,"ARG_OF_PERICENTER":100.0808,"MEAN_ANOMALY":260.0516,"EPHEMERIS_TYPE":0,"CLASSIFICATION_TYPE":"U","NORAD_CAT_ID":45162,"ELEMENT_SET_NO":999,"REV_AT_EPOCH":28540,"BSTAR":0.0018741237,"MEAN_MOTION_DOT":6.67e-6,"MEAN_MOTION_DDOT":0},{"OBJECT_NAME":"ONEWEB-0062","OBJECT_ID":"2020-008AJ","EPOCH":"2025-12-24T05:19:01.919136","MEAN_MOTION":13.10368861,"ECCENTRICITY":0.0001465,"INCLINATION":87.8802,"RA_OF_ASC_NODE":71.1412,"ARG_OF_PERICENTER":90.9311,"MEAN_ANOMALY":269.1984,"EPHEMERIS_TYPE":0,"CLASSIFICATION_TYPE":"U","NORAD_CAT_ID":45163,"ELEMENT_SET_NO":999,"REV_AT_EPOCH":28527,"BSTAR":-0.00046101908,"MEAN_MOTION_DOT":-1.48e-6,"MEAN_MOTION_DDOT":0},{"OBJECT_NAME":"ONEWEB-0065","OBJECT_ID":"2020-008AK","EPOCH":"2025-12-24T06:03:04.368960","MEAN_MOTION":13.10377829,"ECCENTRICITY":0.00018532,"INCLINATION":87.8806,"RA_OF_ASC_NODE":71.1501,"ARG_OF_PERICENTER":114.3968,"MEAN_ANOMALY":245.7353,"EPHEMERIS_TYPE":0,"CLASSIFICATION_TYPE":"U","NORAD_CAT_ID":45164,"ELEMENT_SET_NO":999,"REV_AT_EPOCH":28497,"BSTAR":-0.00045581351,"MEAN_MOTION_DOT":-1.46e-6,"MEAN_MOTION_DDOT":0},{"OBJECT_NAME":"ONEWEB-0066","OBJECT_ID":"2020-020A","EPOCH":"2025-12-24T04:45:24.630336","MEAN_MOTION":13.11417988,"ECCENTRICITY":0.00020118,"INCLINATION":87.8861,"RA_OF_ASC_NODE":55.9092,"ARG_OF_PERICENTER":99.1039,"MEAN_ANOMALY":261.0317,"EPHEMERIS_TYPE":0,"CLASSIFICATION_TYPE":"U","NORAD_CAT_ID":45424,"ELEMENT_SET_NO":999,"REV_AT_EPOCH":27974,"BSTAR":-0.0010976762,"MEAN_MOTION_DOT":-3.76e-6,"MEAN_MOTION_DDOT":0},{"OBJECT_NAME":"ONEWEB-0067","OBJECT_ID":"2020-020B","EPOCH":"2025-12-24T05:39:19.689120","MEAN_MOTION":13.11416163,"ECCENTRICITY":0.00019712,"INCLINATION":87.8854,"RA_OF_ASC_NODE":55.8046,"ARG_OF_PERICENTER":102.4839,"MEAN_ANOMALY":257.6509,"EPHEMERIS_TYPE":0,"CLASSIFICATION_TYPE":"U","NORAD_CAT_ID":45425,"ELEMENT_SET_NO":999,"REV_AT_EPOCH":27980,"BSTAR":0.0011520637,"MEAN_MOTION_DOT":4.21e-6,"MEAN_MOTION_DDOT":0},{"OBJECT_NAME":"ONEWEB-0080","OBJECT_ID":"2020-020C","EPOCH":"2025-12-24T04:02:41.557056","MEAN_MOTION":13.11413974,"ECCENTRICITY":0.00017505,"INCLINATION":87.8843,"RA_OF_ASC_NODE":55.9146,"ARG_OF_PERICENTER":90.5505,"MEAN_ANOMALY":269.5823,"EPHEMERIS_TYPE":0,"CLASSIFICATION_TYPE":"U","NORAD_CAT_ID":45426,"ELEMENT_SET_NO":999,"REV_AT_EPOCH":27976,"BSTAR":0.0010084669,"MEAN_MOTION_DOT":3.7e-6,"MEAN_MOTION_DDOT":0},{"OBJECT_NAME":"ONEWEB-0090","OBJECT_ID":"2020-020D","EPOCH":"2025-12-24T04:30:44.311968","MEAN_MOTION":13.11414223,"ECCENTRICITY":0.00016764,"INCLINATION":87.8838,"RA_OF_ASC_NODE":55.9121,"ARG_OF_PERICENTER":100.1773,"MEAN_ANOMALY":259.9544,"EPHEMERIS_TYPE":0,"CLASSIFICATION_TYPE":"U","NORAD_CAT_ID":45427,"ELEMENT_SET_NO":999,"REV_AT_EPOCH":27973,"BSTAR":-0.0011101175,"MEAN_MOTION_DOT":-3.81e-6,"MEAN_MOTION_DDOT":0},{"OBJECT_NAME":"ONEWEB-0061","OBJECT_ID":"2020-020E","EPOCH":"2025-12-24T03:27:04.687200","MEAN_MOTION":13.11417567,"ECCENTRICITY":0.00018152,"INCLINATION":87.8855,"RA_OF_ASC_NODE":55.9029,"ARG_OF_PERICENTER":100.7081,"MEAN_ANOMALY":259.4251,"EPHEMERIS_TYPE":0,"CLASSIFICATION_TYPE":"U","NORAD_CAT_ID":45428,"ELEMENT_SET_NO":999,"REV_AT_EPOCH":27968,"BSTAR":0.001105583,"MEAN_MOTION_DOT":4.05e-6,"MEAN_MOTION_DDOT":0},{"OBJECT_NAME":"ONEWEB-0081","OBJECT_ID":"2020-020F","EPOCH":"2025-12-24T04:50:17.439936","MEAN_MOTION":13.11418577,"ECCENTRICITY":0.00019739,"INCLINATION":87.8854,"RA_OF_ASC_NODE":55.9069,"ARG_OF_PERICENTER":100.0736,"MEAN_ANOMALY":260.0615,"EPHEMERIS_TYPE":0,"CLASSIFICATION_TYPE":"U","NORAD_CAT_ID":45429,"ELEMENT_SET_NO":999,"REV_AT_EPOCH":27980,"BSTAR":-0.0011839021,"MEAN_MOTION_DOT":-4.07e-6,"MEAN_MOTION_DDOT":0},{"OBJECT_NAME":"ONEWEB-0069","OBJECT_ID":"2020-020G","EPOCH":"2025-12-24T04:34:24.699360","MEAN_MOTION":13.1141639,"ECCENTRICITY":0.00018659,"INCLINATION":87.8853,"RA_OF_ASC_NODE":55.9055,"ARG_OF_PERICENTER":101.2573,"MEAN_ANOMALY":258.8765,"EPHEMERIS_TYPE":0,"CLASSIFICATION_TYPE":"U","NORAD_CAT_ID":45430,"ELEMENT_SET_NO":999,"REV_AT_EPOCH":27973,"BSTAR":-0.0014031255,"MEAN_MOTION_DOT":-4.85e-6,"MEAN_MOTION_DDOT":0},{"OBJECT_NAME":"ONEWEB-0031","OBJECT_ID":"2020-020H","EPOCH":"2025-12-24T03:54:08.758368","MEAN_MOTION":13.11415495,"ECCENTRICITY":0.00016846,"INCLINATION":87.8839,"RA_OF_ASC_NODE":55.935,"ARG_OF_PERICENTER":104.9742,"MEAN_ANOMALY":255.1573,"EPHEMERIS_TYPE":0,"CLASSIFICATION_TYPE":"U","NORAD_CAT_ID":45431,"ELEMENT_SET_NO":999,"REV_AT_EPOCH":27971,"BSTAR":0.0012416285,"MEAN_MOTION_DOT":4.53e-6,"MEAN_MOTION_DDOT":0},{"OBJECT_NAME":"ONEWEB-0027","OBJECT_ID":"2020-020J","EPOCH":"2025-12-24T04:43:46.228512","MEAN_MOTION":13.17648298,"ECCENTRICITY":0.00014015,"INCLINATION":87.911,"RA_OF_ASC_NODE":40.632,"ARG_OF_PERICENTER":101.0965,"MEAN_ANOMALY":259.0325,"EPHEMERIS_TYPE":0,"CLASSIFICATION_TYPE":"U","NORAD_CAT_ID":45432,"ELEMENT_SET_NO":999,"REV_AT_EPOCH":28331,"BSTAR":2.4072744e-5,"MEAN_MOTION_DOT":2.2e-7,"MEAN_MOTION_DDOT":0},{"OBJECT_NAME":"ONEWEB-0064","OBJECT_ID":"2020-020K","EPOCH":"2025-12-24T05:41:34.411776","MEAN_MOTION":13.1141616,"ECCENTRICITY":0.00016256,"INCLINATION":87.8845,"RA_OF_ASC_NODE":55.9096,"ARG_OF_PERICENTER":103.36,"MEAN_ANOMALY":256.7709,"EPHEMERIS_TYPE":0,"CLASSIFICATION_TYPE":"U","NORAD_CAT_ID":45433,"ELEMENT_SET_NO":999,"REV_AT_EPOCH":27975,"BSTAR":0.0016203221,"MEAN_MOTION_DOT":5.87e-6,"MEAN_MOTION_DDOT":0},{"OBJECT_NAME":"ONEWEB-0018","OBJECT_ID":"2020-020L","EPOCH":"2025-12-24T04:38:03.610176","MEAN_MOTION":13.11414894,"ECCENTRICITY":0.00019031,"INCLINATION":87.8856,"RA_OF_ASC_NODE":55.9093,"ARG_OF_PERICENTER":96.4547,"MEAN_ANOMALY":263.6798,"EPHEMERIS_TYPE":0,"CLASSIFICATION_TYPE":"U","NORAD_CAT_ID":45434,"ELEMENT_SET_NO":999,"REV_AT_EPOCH":27969,"BSTAR":-0.001599647,"MEAN_MOTION_DOT":-5.54e-6,"MEAN_MOTION_DDOT":0},{"OBJECT_NAME":"ONEWEB-0083","OBJECT_ID":"2020-020M","EPOCH":"2025-12-24T04:24:38.748384","MEAN_MOTION":13.11413554,"ECCENTRICITY":0.00017235,"INCLINATION":87.8856,"RA_OF_ASC_NODE":55.8997,"ARG_OF_PERICENTER":99.0668,"MEAN_ANOMALY":261.0655,"EPHEMERIS_TYPE":0,"CLASSIFICATION_TYPE":"U","NORAD_CAT_ID":45435,"ELEMENT_SET_NO":999,"REV_AT_EPOCH":27973,"BSTAR":-0.00081839572,"MEAN_MOTION_DOT":-2.77e-6,"MEAN_MOTION_DDOT":0}]
