ONEWEB-0058             
1 45161U 20008AG  25358.19930393  .00000698  00000+0  19629-2 0  9998
2 45161  87.8795  71.1690 0001653  97.9730 262.1585 13.10371992285502
ONEWEB-0059             
1 45162U 20008AH  25358.19583919  .00000667  00000+0  18741-2 0  9997
2 45162  87.8798  71.1698 0001742 100.0808 260.0516 13.10375022285403
ONEWEB-0062             
1 45163U 20008AJ  25358.22154999 -.00000148  00000+0 -46102-3 0  9993
2 45163  87.8802  71.1412 0001465  90.9311 269.1984 13.10368861285279
ONEWEB-0065             
1 45164U 20008AK  25358.25213390 -.00000146  00000+0 -45581-3 0  9996
2 45164  87.8806  71.1501 0001853 114.3968 245.7353 13.10377829284973
ONEWEB-0066             
1 45424U 20020A   25358.19820174 -.00000376  00000+0 -10977-2 0  9991
2 45424  87.8861  55.9092 0002011  99.1039 261.0317 13.11417988279746
ONEWEB-0067             
1 45425U 20020B   25358.23564455  .00000421  00000+0  11521-2 0  9999
2 45425  87.8854  55.8046 0001971 102.4839 257.6509 13.11416163279802
ONEWEB-0080             
1 45426U 20020C   25358.16853654  .00000370  00000+0  10085-2 0  9991
2 45426  87.8843  55.9146 0001750  90.5505 269.5823 13.11413974279768
ONEWEB-0090             
1 45427U 20020D   25358.18801287 -.00000381  00000+0 -11101-2 0  9993
2 45427  87.8838  55.9121 0001676 100.1773 259.9544 13.11414223279736
ONEWEB-0061             
1 45428U 20020E   25358.14380425  .00000405  00000+0  11056-2 0  9990
2 45428  87.8855  55.9029 0001815 100.7081 259.4251 13.11417567279684
ONEWEB-0081             
1 45429U 20020F   25358.20159074 -.00000407  00000+0 -11839-2 0  9995
2 45429  87.8854  55.9069 0001973 100.0736 260.0615 13.11418577279801
ONEWEB-0069             
1 45430U 20020G   25358.19056365 -.00000485  00000+0 -14031-2 0  9997
2 45430  87.8853  55.9055 0001865 101.2573 258.8765 13.11416390279733
ONEWEB-0031             
1 45431U 20020H   25358.16260137  .00000453  00000+0  12416-2 0  9997
2 45431  87.8839  55.9350 0001684 104.9742 255.1573 13.11415495279713
ONEWEB-0027             
1 45432U 20020J   25358.19706283  .00000022  00000+0  24073-4 0  9994
2 45432  87.9110  40.6320 0001401 101.0965 259.0325 13.17648298283311
ONEWEB-0064             
1 45433U 20020K   25358.23720384  .00000587  00000+0  16203-2 0  9998
2 45433  87.8845  55.9096 0001625 103.3600 256.7709 13.11416160279752
ONEWEB-0018             
1 45434U 20020L   25358.19309734 -.00000554  00000+0 -15996-2 0  9990
2 45434  87.8856  55.9093 0001903  96.4547 263.6798 13.11414894279693
ONEWEB-0083             
1 45435U 20020M   25358.18378181 -.00000277  00000+0 -81840-3 0  9996
2 45435  87.8856  55.8997 0001723  99.0668 261.0655 13.11413554279730
